STARLINK-5485           
1 57261U 23094AV  24334.55400565  .00002622  00000+0  20918-3 0  9999
2 57261  43.0058  37.5609 0001494 271.0076  89.0595 15.02524534 77151
STARLINK-5504           
1 57262U 23094AW  24334.43018300  .00000965  00000+0  86487-4 0  9991
2 57262  43.0068  25.3458 0002039 269.7400  90.3209 15.02536969 77467
STARLINK-5509           
1 57263U 23094AX  24334.48641316  .00000782  00000+0  72959-4 0  9992
2 57263  43.0063  37.9146 0001351 278.1658  81.9031 15.02536643 77144
STARLINK-5858           
1 57264U 23094AY  24335.41402875  .00000288  00000+0  36363-4 0  9992
2 57264  43.0072  19.8283 0001373 273.2646  86.8040 15.02536948 77617
STARLINK-5890           
1 57265U 23094AZ  24335.41180450  .00000880  00000+0  80187-4 0  9996
2 57265  43.0050  19.8097 0001136 259.1662 100.9053 15.02542243 77612
STARLINK-30198          
1 57290U 23096A   24335.08065136  .00000816  00000+0  75441-4 0  9998
2 57290  42.9997 228.1068 0000403 308.0673  52.0132 15.02533901 76629
STARLINK-30239          
1 57291U 23096B   24334.41253401 -.00000209  00000+0 -42743-6 0  9998
2 57291  43.0026 231.6935 0001697 274.0511  86.0138 15.02528863 77621
STARLINK-30210          
1 57292U 23096C   24335.40636281  .00003573  00000+0  27941-3 0  9995
2 57292  43.0055 226.2498 0002039 262.5816  97.4795 15.02544816 76696
STARLINK-30235          
1 57294U 23096E   24335.39972492  .00012319  00000+0  92675-3 0  9996
2 57294  42.9961 226.2023 0000502 354.3778   5.7058 15.02480509 76676
STARLINK-30206          
1 57295U 23096F   24335.08398114 -.00001891  00000+0 -12498-3 0  9996
2 57295  43.0034 228.0978 0001559 266.0203  94.0461 15.02516279 76633
STARLINK-30238          
1 57296U 23096G   24335.39637563  .00000789  00000+0  73436-4 0  9998
2 57296  43.0027 226.1731 0000906 294.8966  65.1782 15.02540011 76672
STARLINK-30234          
1 57297U 23096H   24334.44988725  .00038206  00000+0  25480-2 0  9992
2 57297  43.0022 230.2786 0005029 235.2987 124.7384 15.06427332 77649
STARLINK-30241          
1 57298U 23096J   24335.43288342  .00004082  00000+0  31719-3 0  9999
2 57298  43.0025 225.5693 0001258 266.5103  93.5595 15.02522117 76698
STARLINK-30199          
1 57299U 23096K   24335.05732654  .00000640  00000+0  62434-4 0  9993
2 57299  43.0017 227.9303 0000947 270.0113  90.0621 15.02532657 76736
STARLINK-30236          
1 57300U 23096L   24335.38639494  .00002378  00000+0  19102-3 0  9993
2 57300  43.0000 226.0957 0000970 264.3962  95.6769 15.02532989 76686
STARLINK-30201          
1 57301U 23096M   24334.78476648 -.00000494  00000+0 -21525-4 0  9999
2 57301  43.0048 229.3220 0000710 276.7621  83.3140 15.02537443 76787
STARLINK-30233          
1 57302U 23096N   24335.04733647  .00000454  00000+0  48696-4 0  9997
2 57302  43.0052 227.8335 0001811 259.6135 100.4503 15.02535110 76633
STARLINK-30232          
1 57303U 23096P   24334.44571154  .00001758  00000+0  14519-3 0  9998
2 57303  43.0052 231.0926 0001590 266.5842  93.4819 15.02536269 77495
STARLINK-30211          
1 57304U 23096Q   24334.77476161  .00001387  00000+0  11772-3 0  9993
2 57304  43.0043 229.2418 0001333 264.1213  95.9478 15.02542985 76783
STARLINK-30177          
1 57305U 23096R   24334.77143881  .00002559  00000+0  20452-3 0  9991
2 57305  42.9993 229.2210 0001493 272.6582  87.4090 15.02524002 76782
STARLINK-30200          
1 57306U 23096S   24334.77587157 -.00001180  00000+0 -72289-4 0  9997
2 57306  43.0022 229.2543 0001555 268.6447  91.4217 15.02519507 76781
STARLINK-30209          
1 57307U 23096T   24334.76477952 -.00000059  00000+0  10686-4 0  9994
2 57307  42.9997 229.1681 0001145 270.3252  89.7459 15.02534102 76788
STARLINK-30194          
1 57308U 23096U   24335.09383925 -.00000714  00000+0 -37789-4 0  9990
2 57308  43.0040 227.3447 0000946 242.9847 117.0899 15.02542836 76633
STARLINK-30163          
1 57309U 23096V   24335.06195019  .00030746  00000+0  21695-2 0  9996
2 57309  43.0019 227.1070 0003267 233.5202 126.5340 15.04420885 76794
STARLINK-30184          
1 57310U 23096W   24334.37310277  .00001503  00000+0  12626-3 0  9990
2 57310  43.0028 205.5356 0001176 280.4789  79.5920 15.02542787 77023
STARLINK-30175          
1 57311U 23096X   24334.75479135  .00000126  00000+0  24363-4 0  9994
2 57311  43.0034 229.0967 0001144 283.5097  76.5618 15.02535346 76787
STARLINK-6290           
1 57328U 23099A   24335.48117160  .00000350  00000+0  40968-4 0  9991
2 57328  43.0065 251.6933 0001444 269.1428  90.9249 15.02538382 77025
STARLINK-6138           
1 57329U 23099B   24335.47117283  .00000433  00000+0  47180-4 0  9992
2 57329  43.0037 251.6167 0002935 268.0647  91.9859 15.02539494 77024
STARLINK-6212           
1 57330U 23099C   24335.47781374 -.00012509  00000+0 -91110-3 0  9992
2 57330  43.0012 251.6662 0001240 253.6302 106.4404 15.02597960 77025
STARLINK-6234           
1 57331U 23099D   24334.47956628  .00001282  00000+0  10998-3 0  9997
2 57331  43.0024 257.0766 0001374 274.8535  85.2151 15.02534735 76130
STARLINK-5831           
1 57332U 23099E   24334.47734498  .00001474  00000+0  12414-3 0  9995
2 57332  43.0008 257.0631 0000932 279.6391  80.4346 15.02536814 76139
STARLINK-5585           
1 57333U 23099F   24334.94158595  .00000180  00000+0  28395-4 0  9995
2 57333  43.0043 254.5251 0000943 277.0516  83.0219 15.02530571 76831
STARLINK-5589           
1 57334U 23099G   24335.46784723  .00000573  00000+0  57518-4 0  9997
2 57334  43.0053 251.5908 0001825 277.9395  82.1240 15.02539887 76915
STARLINK-6316           
1 57335U 23099H   24334.79197617  .00002523  00000+0  20175-3 0  9998
2 57335  43.0053 255.1223 0001599 254.2947 105.7719 15.02539918 76182
STARLINK-6320           
1 57336U 23099J   24334.82848634 -.00001236  00000+0 -76455-4 0  9990
2 57336  43.0011 254.5197 0001053 272.7708  87.3014 15.02528279 76197
STARLINK-6322           
1 57337U 23099K   24335.46452175  .00000528  00000+0  54122-4 0  9991
2 57337  43.0032 251.5635 0000811 255.1879 104.8874 15.02539466 77022
STARLINK-6374           
1 57338U 23099L   24335.46008541  .00000430  00000+0  46908-4 0  9991
2 57338  43.0032 251.5301 0000920 266.7971  93.2766 15.02538043 77026
STARLINK-6332           
1 57339U 23099M   24335.46674334 -.00000944  00000+0 -54810-4 0  9994
2 57339  43.0048 251.5841 0001085 262.9300  97.1419 15.02536784 77028
STARLINK-6321           
1 57340U 23099N   24334.78309003  .00002684  00000+0  21365-3 0  9997
2 57340  43.0003 255.0516 0001139 278.9256  81.1457 15.02539440 76189
STARLINK-6377           
1 57341U 23099P   24334.85512785  .00001562  00000+0  13069-3 0  9995
2 57341  43.0057 254.7329 0001467 269.5790  90.4884 15.02530239 76195
STARLINK-6375           
1 57342U 23099Q   24334.89940390  .00006536  00000+0  49842-3 0  9991
2 57342  43.0027 254.2069 0001405 263.0779  96.9903 15.02536426 76206
STARLINK-6379           
1 57343U 23099R   24334.85179373  .00000668  00000+0  64484-4 0  9993
2 57343  43.0059 254.7069 0001091 265.2927  94.7790 15.02539232 76193
STARLINK-6380           
1 57344U 23099S   24334.51053000 -.00000363  00000+0 -11825-4 0  9990
2 57344  43.0015 256.4454 0000717 301.6492  58.4280 15.02530135 76148
STARLINK-6373           
1 57345U 23099T   24334.51385563 -.00000224  00000+0 -15362-5 0  9990
2 57345  43.0075 256.4710 0001475 259.2082 100.8595 15.02538343 76145
STARLINK-6359           
1 57346U 23099U   24335.49105449  .00000236  00000+0  32565-4 0  9996
2 57346  43.0080 250.9033 0001988 261.1932  98.8685 15.02534111 77038
STARLINK-6378           
1 57347U 23099V   24334.97142930  .00003808  00000+0  29679-3 0  9994
2 57347  43.0028 253.8883 0001199 278.6230  81.4477 15.02538524 76953
STARLINK-6372           
1 57348U 23099W   24334.82071625 -.00002569  00000+0 -17508-3 0  9994
2 57348  43.0071 254.4691 0002449 262.3512  97.7052 15.02545637 76938
STARLINK-6376           
1 57349U 23099X   24335.48763037  .00007473  00000+0  56663-3 0  9995
2 57349  42.9990 250.8829 0001638 283.5380  76.5279 15.02607076 77031
STARLINK-6362           
1 57350U 23099Y   24335.42715383  .00011780  00000+0  88594-3 0  9996
2 57350  43.0025 239.1169 0001396 264.7696  95.2987 15.02524047 77167
STARLINK-6331           
1 57351U 23099Z   24334.48721915 -.00000379  00000+0 -12947-4 0  9994
2 57351  43.0041 256.2729 0001249 262.0199  98.0501 15.02536099 76144
STARLINK-6297           
1 57352U 23099AA  24335.42047875 -.00002865  00000+0 -19700-3 0  9991
2 57352  43.0038 239.0686 0001782 275.8936  84.1703 15.02549965 77164
STARLINK-6324           
1 57353U 23099AB  24335.48213647  .00002673  00000+0  21280-3 0  9991
2 57353  43.0058 250.8351 0002867 266.1187  93.9328 15.02558399 77031
STARLINK-6293           
1 57354U 23099AC  24334.48093320  .00000814  00000+0  75297-4 0  9998
2 57354  42.9999 244.0579 0001344 273.9598  86.1090 15.02535931 76285
STARLINK-6276           
1 57355U 23099AD  24334.75904692  .00000331  00000+0  39611-4 0  9996
2 57355  43.0051 242.7046 0001614 265.0897  94.9761 15.02538557 76329
STARLINK-6355           
1 57356U 23099AE  24334.47982170  .00000711  00000+0  67721-4 0  9998
2 57356  43.0074 244.0454 0001142 280.7355  79.3359 15.02535339 76282
STARLINK-5600           
1 57357U 23099AF  24335.15241262 -.00001679  00000+0 -10938-3 0  9998
2 57357  43.0019 240.4921 0000308  93.7578 266.3299 15.02501614 77015
STARLINK-6299           
1 57358U 23099AG  24335.47143810  .00000555  00000+0  56172-4 0  9995
2 57358  43.0075 238.5871 0000881 265.0149  95.0593 15.02540635 77171
STARLINK-6347           
1 57359U 23099AH  24335.42161356  .00000310  00000+0  38018-4 0  9994
2 57359  43.0034 239.0740 0000668 237.7126 122.3652 15.02534200 77162
STARLINK-6348           
1 57360U 23099AJ  24335.46478097  .00000813  00000+0  75253-4 0  9993
2 57360  43.0066 238.5345 0000849 259.5742 100.5004 15.02536297 77179
